0 NIMBUS 2 DEB
1 28209U 66040X   13285.70753844  .00001411  00000-0  23336-2 0  9596
2 28209 100.3307 013.0910 0052302 123.5796 237.0370 13.48321542509713
0 NIMBUS 2 DEB
1 28209U 66040X   13288.45305830  .00001410  00000-0  23336-2 0  9600
2 28209 100.3315 015.9291 0050683 118.4258 242.2789 13.48332842510080
0 NIMBUS 2 DEB
1 28209U 66040X   13291.49534726  .00001411  00000-0  23336-2 0  9618
2 28209 100.3268 019.0691 0051139 111.4302 249.2467 13.48342858510499
0 NIMBUS 2 DEB
1 28209U 66040X   13294.46342330  .00001411  00000-0  23336-2 0  9627
2 28209 100.3267 022.1348 0050644 103.5289 257.1773 13.48352818510897
